NORAD_CAT_ID,OBJECT_NAME,OBJECT_TYPE,EPOCH,MEAN_MOTION,ECCENTRICITY,INCLINATION,RA_OF_ASC_NODE,ARG_OF_PERICENTER,MEAN_ANOMALY,BSTAR,MEAN_MOTION_DOT,MEAN_MOTION_DDOT,TLE_LINE0,TLE_LINE1,TLE_LINE2,SEMIMAJOR_AXIS,PERIOD,APOGEE,PERIGEE,DECAYED
51472.0,STARLINK-3415,PAYLOAD,2023-02-19 22:00:57,15.08833526,8.63e-05,53.2146,239.041,76.4508,283.658,0.00031512,4.73e-05,0.0,0 STARLINK-3415,1 51472U 22010S   23050.91732989  .00004730  00000-0  31512-3 0  9991,2 51472  53.2146 239.0410 0000863  76.4508 283.6580 15.08833526 59184,6917.9,95.438,540.362,539.168,0.0
51472.0,STARLINK-3415,PAYLOAD,2023-02-20 05:57:51,15.08852756,8.41e-05,53.2145,237.5547,79.493,280.6157,0.00029388,4.394e-05,0.0,0 STARLINK-3415,1 51472U 22010S   23051.24851849  .00004394  00000-0  29388-3 0  9999,2 51472  53.2145 237.5547 0000841  79.4930 280.6157 15.08852756 59234,6917.841,95.437,540.288,539.125,0.0
51472.0,STARLINK-3415,PAYLOAD,2023-02-21 13:45:34,15.08839584,8.01e-05,53.2148,231.6053,91.3943,268.7141,3.5158e-05,2.72e-06,0.0,0 STARLINK-3415,1 51472U 22010S   23052.57332173  .00000272  00000-0  35158-4 0  9994,2 51472  53.2148 231.6053 0000801  91.3943 268.7141 15.08839584 58937,6917.882,95.438,540.301,539.193,0.0
51472.0,STARLINK-3415,PAYLOAD,2023-02-21 15:20:57,15.08846836,0.0001243,53.2151,231.3089,83.9389,276.1745,-5.9491e-05,-1.235e-05,0.0,0 STARLINK-3415,1 51472U 22010S   23052.63955899 -.00001235  00000-0 -59491-4 0  9995,2 51472  53.2151 231.3089 0001243  83.9389 276.1745 15.08846836 59447,6917.859,95.437,540.584,538.865,0.0
51472.0,STARLINK-3415,PAYLOAD,2023-02-21 21:42:30,15.08850235,0.00012,53.2143,230.1189,72.5953,287.517,-9.1015e-06,-4.33e-06,0.0,0 STARLINK-3415,1 51472U 22010S   23052.90451698 -.00000433  00000-0 -91015-5 0  9991,2 51472  53.2143 230.1189 0001200  72.5953 287.5170 15.08850235 58984,6917.849,95.437,540.544,538.884,0.0
51472.0,STARLINK-3415,PAYLOAD,2023-02-22 12:00:58,15.08839763,0.0001091,53.2148,227.4428,75.3841,284.7272,4.7234e-05,4.64e-06,0.0,0 STARLINK-3415,1 51472U 22010S   23053.50068209  .00000464  00000-0  47234-4 0  9995,2 51472  53.2148 227.4428 0001091  75.3841 284.7272 15.08839763 59570,6917.881,95.438,540.501,538.991,0.0
51472.0,STARLINK-3415,PAYLOAD,2023-02-22 13:36:21,15.08841555,0.0001084,53.2147,227.1456,75.0652,285.046,4.6822e-05,4.57e-06,0.0,0 STARLINK-3415,1 51472U 22010S   23053.56692116  .00000457  00000-0  46822-4 0  9995,2 51472  53.2147 227.1456 0001084  75.0652 285.0460 15.08841555 59087,6917.876,95.437,540.491,538.991,0.0
51472.0,STARLINK-3415,PAYLOAD,2023-02-22 21:33:17,15.08847624,0.0001055,53.215,225.6589,73.4955,286.6153,0.0001867,2.685e-05,0.0,0 STARLINK-3415,1 51472U 22010S   23053.89811752  .00002685  00000-0  18670-3 0  9994,2 51472  53.2150 225.6589 0001055  73.4955 286.6153 15.08847624 59132,6917.857,95.437,540.452,538.992,0.0
51472.0,STARLINK-3415,PAYLOAD,2023-02-23 11:51:46,15.08833631,8.91e-05,53.2147,222.9822,65.9472,294.1613,-8.6156e-06,-4.25e-06,0.0,0 STARLINK-3415,1 51472U 22010S   23054.49428445 -.00000425  00000-0 -86156-5 0  9992,2 51472  53.2147 222.9822 0000891  65.9472 294.1613 15.08833631 59223,6917.9,95.438,540.381,539.148,0.0
51472.0,STARLINK-3415,PAYLOAD,2023-02-23 21:24:04,15.0884655,0.000107,53.2145,221.1981,73.5174,286.5936,0.00021201,3.089e-05,0.0,0 STARLINK-3415,1 51472U 22010S   23054.89172021  .00003089  00000-0  21201-3 0  9997,2 51472  53.2145 221.1981 0001070  73.5174 286.5936 15.08846550 59780,6917.86,95.437,540.466,538.985,0.0
51472.0,STARLINK-3415,PAYLOAD,2023-02-24 03:45:37,15.08836522,9.99e-05,53.2146,220.0081,72.1909,287.9192,-7.3819e-06,-4.05e-06,0.0,0 STARLINK-3415,1 51472U 22010S   23055.15668332 -.00000405  00000-0 -73819-5 0  9997,2 51472  53.2146 220.0081 0000999  72.1909 287.9192 15.08836522 59822,6917.891,95.438,540.447,539.065,0.0
51472.0,STARLINK-3415,PAYLOAD,2023-02-24 13:17:56,15.08833394,0.0001009,53.2139,218.2239,73.3668,286.7435,-4.3362e-05,-9.78e-06,0.0,0 STARLINK-3415,1 51472U 22010S   23055.55412700 -.00000978  00000-0 -43362-4 0  9991,2 51472  53.2139 218.2239 0001009  73.3668 286.7435 15.08833394 59388,6917.901,95.438,540.464,539.068,0.0
51472.0,STARLINK-3415,PAYLOAD,2023-02-24 19:39:29,15.08840865,0.0001011,53.2149,217.035,73.8612,286.2491,6.4287e-05,7.36e-06,0.0,0 STARLINK-3415,1 51472U 22010S   23055.81908606  .00000736  00000-0  64287-4 0  9994,2 51472  53.2149 217.0350 0001011  73.8612 286.2491 15.08840865 59420,6917.878,95.437,540.442,539.043,0.0
51472.0,STARLINK-3415,PAYLOAD,2023-02-25 13:08:44,15.08830815,8.33e-05,53.2145,213.7624,82.5619,277.5468,4.3094e-05,3.98e-06,0.0,0 STARLINK-3415,1 51472U 22010S   23056.54773159  .00000398  00000-0  43094-4 0  9995,2 51472  53.2145 213.7624 0000833  82.5619 277.5468 15.08830815 60038,6917.908,95.438,540.35,539.197,0.0
51472.0,STARLINK-3415,PAYLOAD,2023-02-25 21:05:39,15.08844988,9.91e-05,53.2153,212.2775,84.2938,275.8167,0.00018235,2.616e-05,0.0,0 STARLINK-3415,1 51472U 22010S   23056.87892662  .00002616  00000-0  18235-3 0  9995,2 51472  53.2153 212.2775 0000991  84.2938 275.8167 15.08844988 59587,6917.865,95.437,540.416,539.045,0.0
51472.0,STARLINK-3415,PAYLOAD,2023-02-26 03:27:12,15.08841071,0.0001113,53.2153,211.0869,81.7651,278.3467,0.0001783,2.551e-05,0.0,0 STARLINK-3415,1 51472U 22010S   23057.14388974  .00002551  00000-0  17830-3 0  9990,2 51472  53.2153 211.0869 0001113  81.7651 278.3467 15.08841071 60122,6917.877,95.437,540.512,538.972,0.0
51472.0,STARLINK-3415,PAYLOAD,2023-02-26 12:59:30,15.08849541,0.0001013,53.2147,209.3033,88.5652,271.5456,0.00037433,5.676e-05,0.0,0 STARLINK-3415,1 51472U 22010S   23057.54132695  .00005676  00000-0  37433-3 0  9993,2 51472  53.2147 209.3033 0001013  88.5652 271.5456 15.08849541 59685,6917.851,95.437,540.417,539.015,0.0
51472.0,STARLINK-3415,PAYLOAD,2023-02-26 19:21:02,15.08866345,0.0001066,53.2144,208.1139,86.7008,273.4106,0.00090698,0.00014186,0.0,0 STARLINK-3415,1 51472U 22010S   23057.80628250  .00014186  00000-0  90698-3 0  9997,2 51472  53.2144 208.1139 0001066  86.7008 273.4106 15.08866345 60225,6917.8,95.436,540.402,538.927,0.0
51472.0,STARLINK-3415,PAYLOAD,2023-02-27 03:17:58,15.08842116,4.74e-05,53.2149,206.6262,233.2837,126.8112,-0.00035697,-5.964e-05,0.0,0 STARLINK-3415,1 51472U 22010S   23058.13747907 -.00005964  00000-0 -35697-3 0  9999,2 51472  53.2149 206.6262 0000474 233.2837 126.8112 15.08842116 60274,6917.874,95.437,540.067,539.411,0.0
51472.0,STARLINK-3415,PAYLOAD,2023-02-27 09:39:31,15.08850183,9.27e-05,53.2146,205.4382,89.4331,270.6768,0.0003131,4.7e-05,0.0,0 STARLINK-3415,1 51472U 22010S   23058.40244464  .00004700  00000-0  31310-3 0  9992,2 51472  53.2146 205.4382 0000927  89.4331 270.6768 15.08850183 59810,6917.849,95.437,540.356,539.073,0.0
51472.0,STARLINK-3415,PAYLOAD,2023-02-27 16:01:03,15.08900786,9.78e-05,53.2139,204.2486,100.9332,259.177,0.0049357,0.0007928,0.0,0 STARLINK-3415,1 51472U 22010S   23058.66739968  .00079280  00000-0  49357-2 0  9992,2 51472  53.2139 204.2486 0000978 100.9332 259.1770 15.08900786 60351,6917.695,95.434,540.236,538.883,0.0
51472.0,STARLINK-3415,PAYLOAD,2023-02-27 20:47:12,15.08879844,0.0001067,53.2141,203.3572,89.5744,270.537,0.0024612,0.00039143,0.0,0 STARLINK-3415,1 51472U 22010S   23058.86611673  .00039143  00000-0  24612-2 0  9997,2 51472  53.2141 203.3572 0001067  89.5744 270.5370 15.08879844 59888,6917.759,95.435,540.362,538.885,0.0
51472.0,STARLINK-3415,PAYLOAD,2023-02-28 03:08:45,15.08845008,0.0001434,53.2145,202.1671,72.699,287.4159,0.00079193,0.0001234,0.0,0 STARLINK-3415,1 51472U 22010S   23059.13108458  .00012340  00000-0  79193-3 0  9995,2 51472  53.2145 202.1671 0001434  72.6990 287.4159 15.08845008 60422,6917.865,95.437,540.722,538.738,0.0
51472.0,STARLINK-3415,PAYLOAD,2023-02-28 12:41:04,15.08846016,0.0001182,53.2145,200.3827,80.1353,279.9772,0.0010687,0.00016764,0.0,0 STARLINK-3415,1 51472U 22010S   23059.52852354  .00016764  00000-0  10687-2 0  9995,2 51472  53.2145 200.3827 0001182  80.1353 279.9772 15.08846016 59988,6917.862,95.437,540.545,538.909,0.0
51472.0,STARLINK-3415,PAYLOAD,2023-02-28 20:38:00,15.08849179,0.0001243,53.2145,198.8955,78.9467,281.1665,0.0011583,0.00018199,0.0,0 STARLINK-3415,1 51472U 22010S   23059.85972249  .00018199  00000-0  11583-2 0  9997,2 51472  53.2145 198.8955 0001243  78.9467 281.1665 15.08849179 60037,6917.852,95.437,540.577,538.857,0.0
51472.0,STARLINK-3415,PAYLOAD,2023-03-01 09:21:05,15.08822207,0.0001966,53.2138,196.5148,90.0516,270.0701,0.00078083,0.00012155,0.0,0 STARLINK-3415,1 51472U 22010S   23060.38965274  .00012155  00000-0  78083-3 0  9992,2 51472  53.2138 196.5148 0001966  90.0516 270.0701 15.08822207 60615,6917.935,95.439,541.16,538.44,0.0
51472.0,STARLINK-3415,PAYLOAD,2023-03-01 20:28:48,15.08840968,0.0001198,53.2145,194.4347,77.9391,282.1735,0.0013707,0.00021595,0.0,0 STARLINK-3415,1 51472U 22010S   23060.85333403  .00021595  00000-0  13707-2 0  9996,2 51472  53.2145 194.4347 0001198  77.9391 282.1735 15.08840968 60180,6917.877,95.437,540.571,538.914,0.0
51472.0,STARLINK-3415,PAYLOAD,2023-03-02 13:58:02,15.08850338,0.0001671,53.2142,191.1619,105.8072,254.3104,0.0014044,0.0002214,0.0,0 STARLINK-3415,1 51472U 22010S   23061.58197664  .00022140  00000-0  14044-2 0  9996,2 51472  53.2142 191.1619 0001671 105.8072 254.3104 15.08850338 60291,6917.849,95.437,540.87,538.558,0.0
51472.0,STARLINK-3415,PAYLOAD,2023-03-03 12:13:26,15.08861605,0.0001262,53.2164,187.0024,84.5945,275.5191,0.00089636,0.00014015,0.0,0 STARLINK-3415,1 51472U 22010S   23062.50933180  .00014015  00000-0  89636-3 0  9992,2 51472  53.2164 187.0024 0001262  84.5945 275.5191 15.08861605 60938,6917.814,95.436,540.552,538.806,0.0
51472.0,STARLINK-3415,PAYLOAD,2023-03-03 18:34:58,15.08889389,0.0001265,53.2156,185.8105,98.0418,262.0718,0.0016964,0.0002685,0.0,0 STARLINK-3415,1 51472U 22010S   23062.77428245  .00026850  00000-0  16964-2 0  9995,2 51472  53.2156 185.8105 0001265  98.0418 262.0718 15.08889389 60972,6917.729,95.434,540.47,538.719,0.0
